ESTCUBE 1               
1 39161U 13021C   22267.19072015  .00001031  00000+0  16752-3 0  9999
2 39161  97.9037 341.8401 0010906 102.6913 257.5513 14.73111537504006
FENGYUN 3C              
1 39260U 13052A   22267.13010035  .00000058  00000+0  50050-4 0  9999
2 39260  98.4500 290.2265 0011091 356.4418   3.6682 14.15943841465883
CASSIOPE                
1 39265U 13055A   22266.80077489  .00019570  00000+0  51297-3 0  9998
2 39265  80.9667 162.9436 0615427  26.4412 336.6824 14.40607298466489
ZACUBE-1 (TSHEPISOSAT)  
1 39417U 13066B   22266.84392889  .00002003  00000+0  24760-3 0  9995
2 39417  97.6475 233.9676 0059123  82.1688 278.6233 14.82623994477707
CINEMA-3 (KHUSAT-2)     
1 39426U 13066L   22266.55791086  .00000974  00000+0  15709-3 0  9993
2 39426  97.8030 202.2519 0101484 281.8406  77.1434 14.70328940473683
TRITON-1                
1 39427U 13066M   22267.09630246  .00001864  00000+0  29662-3 0  9996
2 39427  97.8156 198.6225 0110336 309.9840  49.1718 14.69217690473451
DELFI-N3XT              
1 39428U 13066N   22266.86106753  .00003451  00000+0  53220-3 0  9993
2 39428  97.8156 197.0138 0115846 323.9284  35.4145 14.69581861472980
GOMX-1                  
1 39430U 13066Q   22267.19352785  .00001020  00000+0  18844-3 0  9994
2 39430  97.7995 168.7218 0150347  93.4701 268.3720 14.60369002470701
BRITE-PL1 (LEM)         
1 39431U 13066R   22267.09082158  .00000354  00000+0  85755-4 0  9993
2 39431  97.6910 111.9972 0200003 283.1561  74.7387 14.47416870466830
ICUBE-1                 
1 39432U 13066S   22266.88754337  .00003083  00000+0  30403-3 0  9996
2 39432  97.4724 265.5935 0029071 296.8856  62.9393 14.92393022479382
HUMSAT-D                
1 39433U 13066T   22266.89716291  .00003852  00000+0  35544-3 0  9990
2 39433  97.4515 273.3070 0027152 268.0132  91.7980 14.94930165479923
VELOX-PII               
1 39438U 13066Y   22267.13980753  .00001244  00000+0  16796-3 0  9990
2 39438  97.7029 225.6033 0070216 134.2581 226.4423 14.79119621476724
FIRST-MOVE              
1 39439U 13066Z   22266.48133781  .00004059  00000+0  46752-3 0  9991
2 39439  97.6466 236.2726 0063987  77.8371 283.0002 14.84761610476596
CUBEBUG-2 (LO-74)       
1 39440U 13066AA  22266.88130103  .00001309  00000+0  18252-3 0  9991
2 39440  97.7355 220.3607 0078467 171.0258 189.2377 14.77269773476012
NEE-02 KRYSAOR          
1 39441U 13066AB  22266.83467710  .00000883  00000+0  12922-3 0  9998
2 39441  97.7463 217.4419 0080044 185.4955 174.5385 14.75933097474545
FUNCUBE-1 (AO-73)       
1 39444U 13066AE  22267.19178509  .00002724  00000+0  32564-3 0  9996
2 39444  97.6350 236.7214 0057873  69.0416 291.6979 14.83767093476757
HINCUBE                 
1 39445U 13066AF  22266.85176240  .00002624  00000+0  31546-3 0  9997
2 39445  97.6364 236.2061 0057971  72.3545 288.3989 14.83566235476059
UWE-3                   
1 39446U 13066AG  22266.86832780  .00001532  00000+0  20186-3 0  9992
2 39446  97.6961 226.7452 0069553 127.5423 233.2137 14.79830374475605
AIST-1 (RS-41)          
1 39492U 13078C   22267.06949390  .00000790  00000+0  81887-4 0  9996
2 39492  82.4189 142.2668 0020500 135.9142 224.3716 14.88591924474452
SPROUT                  
1 39770U 14029E   22267.07590970  .00006331  00000+0  63049-3 0  9995
2 39770  97.9494  24.7361 0009573 119.7528 240.4636 14.91935329452361
UNISAT-6                
1 40012U 14033C   22267.08790908  .00001508  00000+0  22515-3 0  9999
2 40012  97.6636  89.8074 0056723 198.3008 161.6162 14.75114616444522
BUGSAT-1 (TITA)         
1 40014U 14033E   22266.93530986  .00001461  00000+0  13121-3 0  9993
2 40014  98.1470 269.3967 0031947  71.8749 288.5953 14.97028547450873
DUCHIFAT-1              
1 40021U 14033M   22267.11994588  .00003578  00000+0  34578-3 0  9994
2 40021  98.0203 219.1865 0013940  76.2634 284.0136 14.93409667449424
NANOSATC-BR1            
1 40024U 14033Q   22266.80150775  .00003732  00000+0  37174-3 0  9991
2 40024  97.9918 211.7000 0013540  83.7486 276.5274 14.92168669448646
QB50P1                  
1 40025U 14033R   22266.79660532  .00002515  00000+0  26069-3 0  9996
2 40025  97.9642 205.0031 0013765  92.6285 267.6508 14.90866975448415
DTUSAT-2                
1 40030U 14033W   22266.55101060  .00002295  00000+0  24186-3 0  9995
2 40030  97.9393 199.7421 0013207  90.5877 269.6853 14.90288944448252
QB50P2                  
1 40032U 14033Y   22267.06220102  .00002036  00000+0  21538-3 0  9994
2 40032  97.9398 200.2705 0013174  89.8929 270.3798 14.90267432448823
POLYITAN-1              
1 40042U 14033AJ  22266.80719097  .00002907  00000+0  29957-3 0  9992
2 40042  97.9752 206.3438 0015912  85.3157 274.9878 14.90964839448301
TIGRISAT                
1 40043U 14033AK  22266.45134328  .00001209  00000+0  18135-3 0  9992
2 40043  97.6575  90.4436 0058556 197.7138 162.2031 14.75174887444079
AISAT                   
1 40054U 14034B   22266.74952428  .00002418  00000+0  32623-3 0  9997
2 40054  98.3657  82.1659 0012361   5.5840 354.5506 14.80084409444018
CANX-4                  
1 40055U 14034C   22266.94108249  .00000744  00000+0  11707-3 0  9994
2 40055  98.3684  67.1812 0014944  48.1578 312.0903 14.75561540443270
CANX-5                  
1 40056U 14034D   22267.01570545  .00000744  00000+0  11714-3 0  9994
2 40056  98.3685  67.2378 0014956  48.0290 312.2190 14.75557732443282
VELOX-I                 
1 40057U 14034E   22267.06572270  .00001948  00000+0  26818-3 0  9995
2 40057  98.3713  83.6050 0011002  20.3938 339.7690 14.79458625444055
METEOR-M 2              
1 40069U 14037A   22267.13253220  .00000011  00000+0  24207-4 0  9991
2 40069  98.4314 280.4314 0006572  43.7497 316.4203 14.20718900425873
DX1                     
1 40071U 14037C   22267.05135879  .00000703  00000+0  95952-4 0  9997
2 40071  98.3938 140.6248 0008675   9.1269 351.0104 14.81992690443949
UKUBE-1                 
1 40074U 14037F   22267.16292450  .00001855  00000+0  22065-3 0  9994
2 40074  98.3675 152.9409 0004050 351.2975   8.8154 14.85702031444724
FIREBIRD 3              
1 40377U 15003B   22266.66225165  .00020308  00000+0  56172-3 0  9997
2 40377  99.0846 153.6163 0095755  52.3637 308.6241 15.32493539423446
FIREBIRD 4              
1 40378U 15003C   22266.68130397  .00021049  00000+0  58016-3 0  9994
2 40378  99.0851 153.8729 0095613  51.9137 309.0675 15.32605123423457
GRIFEX                  
1 40379U 15003D   22267.20127929  .00012404  00000+0  41896-3 0  9994
2 40379  99.0972 139.2885 0112844  95.5177 265.8939 15.24875176422670
CP10 (EXOCUBE)          
1 40380U 15003E   22266.87737951  .00007756  00000+0  28971-3 0  9993
2 40380  99.1085 131.2124 0121501 122.2074 239.1006 15.21027906422115
DEORBITSAIL             
1 40719U 15032E   22266.91069616  .00002235  00000+0  31035-3 0  9994
2 40719  97.7676 141.9227 0017167  48.0056 312.2614 14.78753393388431
NUDT-PHONESAT           
1 40900U 15049B   22267.20428986  .00030269  00000+0  74248-3 0  9997
2 40900  97.3972 285.9992 0006062 300.5034 124.4013 15.40643152389797
XW-2A                   
1 40903U 15049E   22267.21367303  .00025507  00000+0  34761-3 0  9991
2 40903  97.1688 326.0894 0010408 113.7796 295.4581 15.57448610394614
XW-2C                   
1 40906U 15049H   22267.18751333  .00005526  00000+0  25954-3 0  9993
2 40906  97.4967 269.8844 0014179  22.4723 110.3368 15.19945800387918
XW-2D                   
1 40907U 15049J   22267.15230299  .00006350  00000+0  29116-3 0  9994
2 40907  97.4962 269.9218 0013166  19.3433  46.3959 15.20727004387963
LILACSAT-2              
1 40908U 15049K   22267.16069170  .00002940  00000+0  15493-3 0  9998
2 40908  97.5212 266.8181 0016257  40.3353  18.8635 15.16279908387445
XW-2E                   
1 40909U 15049L   22266.99909941  .00010088  00000+0  40514-3 0  9992
2 40909  97.4666 274.5380 0011178   0.2808  51.9036 15.25097608388429
XW-2F                   
1 40910U 15049M   22267.16046750  .00009946  00000+0  40576-3 0  9993
2 40910  97.4748 273.8566 0012259 359.0914  65.2226 15.24561132388217
XW-2B                   
1 40911U 15049N   22267.11967193  .00006406  00000+0  29472-3 0  9992
2 40911  97.4943 270.4573 0013482  19.9550  48.3182 15.20603490387844
KAITUO 1B               
1 40912U 15049P   22267.15368495  .00011261  00000+0  41529-3 0  9999
2 40912  97.4372 278.1995 0010791 321.8154 103.0233 15.27906930388815
TIANWANG 1A (TW-1A)     
1 40928U 15051D   22267.16476120  .00062203  00000+0  54935-3 0  9992
2 40928  97.0319 289.4643 0006588  38.7507  33.9990 15.68468117393664
LAPAN-A2                
1 40931U 15052B   22266.91332329  .00001001  00000+0  50004-4 0  9994
2 40931   5.9980 186.7135 0012655 121.9474 238.1915 14.76865325377922
LQSAT                   
1 40958U 15057A   22267.07912215  .00000330  00000+0  58135-4 0  9991
2 40958  97.7413 308.8338 0018335   7.5389 352.6107 14.73433551374503
ATHENOXAT 1             
1 41168U 15077C   22267.12619388  .00016610  00000+0  64690-3 0  9998
2 41168  14.9815  77.8920 0008031 194.5780 313.8943 15.23206966375364
GALASSIA                
1 41170U 15077E   22266.75119853  .00012090  00000+0  47911-3 0  9996
2 41170  14.9881  72.4492 0009847 211.7395 148.2334 15.22044838375210
VELOX-II                
1 41171U 15077F   22266.06848826  .00009260  00000+0  41915-3 0  9993
2 41171  14.9904 156.0878 0007488  29.8848 330.1900 15.16989448374458
CHUBUSAT-2              
1 41338U 16012B   22266.78547183  .00002104  00000+0  15141-3 0  9991
2 41338  31.0021 117.6517 0013190  47.7860 312.3894 15.01676351362277
CHUBUSAT-3              
1 41339U 16012C   22266.97333334  .00001923  00000+0  13768-3 0  9995
2 41339  31.0113 113.3670 0013153  56.9760 303.2139 15.01731584362308
HORYU-4                 
1 41340U 16012D   22266.82375235  .00003804  00000+0  26340-3 0  9997
2 41340  31.0042  90.6605 0012874  99.0291 261.1803 15.03828267362545
